{"type": "FeatureCollection", "features": [ {"type": "Feature", "properties": {"norad_id": 34874, "name": "COSMOS 2251 DEB", "group": "cosmos-2251-debris", "lat": -2.9552388989994793, "lon": -107.44533342507542, "alt_km": 771.0547756355718, "timestamp": "2025-12-13T20:38:51.403230+00:00", "meta": {"OBJECT_NAME": "COSMOS 2251 DEB", "OBJECT_ID": "1993-036ACM", "EPOCH": "2025-12-12T05:29:30.411744", "MEAN_MOTION": 14.36307124, "ECCENTRICITY": 0.00509679, "INCLINATION": 74.0398, "RA_OF_ASC_NODE": 74.703, "ARG_OF_PERICENTER": 100.1759, "MEAN_ANOMALY": 289.5848, "EPHEMERIS_TYPE": 0, "CLASSIFICATION_TYPE": "U", "NORAD_CAT_ID": 34874, "ELEMENT_SET_NO": 999, "REV_AT_EPOCH": 87037, "BSTAR": 0.0013992098, "MEAN_MOTION_DOT": 4.128e-05, "MEAN_MOTION_DDOT": 0}, "tle": {"line1": "1 34874U 93036ACM 25346.22882421  .00004128  00000+0  13992-2 0  9996", "line2": "2 34874  74.0398  74.7030 0050967 100.1759 289.5848 14.36307124870370"}}, "geometry": {"type": "Point", "coordinates": [-107.44533342507542, -2.9552388989994793]}}, {"type": "Feature", "properties": {"norad_id": 34875, "name": "COSMOS 2251 DEB", "group": "cosmos-2251-debris", "lat": -67.58717436464144, "lon": 112.19073828323988, "alt_km": 724.6471812846576, "timestamp": "2025-12-13T20:38:51.403240+00:00", "meta": {"OBJECT_NAME": "COSMOS 2251 DEB", "OBJECT_ID": "1993-036ACN", "EPOCH": "2025-12-12T18:32:42.031680", "MEAN_MOTION": 14.48925546, "ECCENTRICITY": 0.00161314, "INCLINATION": 74.0435, "RA_OF_ASC_NODE": 158.1528, "ARG_OF_PERICENTER": 281.8592, "MEAN_ANOMALY": 93.2829, "EPHEMERIS_TYPE": 0, "CLASSIFICATION_TYPE": "U", "NORAD_CAT_ID": 34875, "ELEMENT_SET_NO": 999, "REV_AT_EPOCH": 87756, "BSTAR": 0.00075093784, "MEAN_MOTION_DOT": 2.822e-05, "MEAN_MOTION_DDOT": 0}, "tle": {"line1": "1 34875U 93036ACN 25346.77270870  .00002822  00000+0  75094-3 0  9997", "line2": "2 34875  74.0435 158.1528 0016131 281.8592  93.2829 14.48925546877563"}}, "geometry": {"type": "Point", "coordinates": [112.19073828323988, -67.58717436464144]}}, {"type": "Feature", "properties": {"norad_id": 34878, "name": "COSMOS 2251 DEB", "group": "cosmos-2251-debris", "lat": -10.390943934625232, "lon": 42.52524858588932, "alt_km": 841.1634027437867, "timestamp": "2025-12-13T20:38:51.403250+00:00", "meta": {"OBJECT_NAME": "COSMOS 2251 DEB", "OBJECT_ID": "1993-036ACR", "EPOCH": "2025-12-09T11:24:21.665664", "MEAN_MOTION": 13.44185831, "ECCENTRICITY": 0.04353122, "INCLINATION": 73.9652, "RA_OF_ASC_NODE": 52.502, "ARG_OF_PERICENTER": 36.6708, "MEAN_ANOMALY": 343.8238, "EPHEMERIS_TYPE": 0, "CLASSIFICATION_TYPE": "U", "NORAD_CAT_ID": 34878, "ELEMENT_SET_NO": 999, "REV_AT_EPOCH": 81229, "BSTAR": 0.00088072379, "MEAN_MOTION_DOT": 8.84e-06, "MEAN_MOTION_DDOT": 0}, "tle": {"line1": "1 34878U 93036ACR 25343.47525076  .00000884  00000+0  88072-3 0  9991", "line2": "2 34878  73.9652  52.5020 0435312  36.6708 343.8238 13.44185831812297"}}, "geometry": {"type": "Point", "coordinates": [42.52524858588932, -10.390943934625232]}}, {"type": "Feature", "properties": {"norad_id": 34882, "name": "COSMOS 2251 DEB", "group": "cosmos-2251-debris", "lat": -71.55483432800571, "lon": 164.39255836216208, "alt_km": 675.1893065144732, "timestamp": "2025-12-13T20:38:51.403261+00:00", "meta": {"OBJECT_NAME": "COSMOS 2251 DEB", "OBJECT_ID": "1993-036ACV", "EPOCH": "2025-12-12T15:26:33.087264", "MEAN_MOTION": 14.61597611, "ECCENTRICITY": 0.00828094, "INCLINATION": 74.0462, "RA_OF_ASC_NODE": 225.7751, "ARG_OF_PERICENTER": 352.7324, "MEAN_ANOMALY": 7.2634, "EPHEMERIS_TYPE": 0, "CLASSIFICATION_TYPE": "U", "NORAD_CAT_ID": 34882, "ELEMENT_SET_NO": 999, "REV_AT_EPOCH": 88523, "BSTAR": 0.00026902724, "MEAN_MOTION_DOT": 1.371e-05, "MEAN_MOTION_DDOT": 0}, "tle": {"line1": "1 34882U 93036ACV 25346.64343851  .00001371  00000+0  26903-3 0  9994", "line2": "2 34882  74.0462 225.7751 0082809 352.7324   7.2634 14.61597611885231"}}, "geometry": {"type": "Point", "coordinates": [164.39255836216208, -71.55483432800571]}}, {"type": "Feature", "properties": {"norad_id": 34883, "name": "COSMOS 2251 DEB", "group": "cosmos-2251-debris", "lat": -66.36036251509013, "lon": 20.317461053564617, "alt_km": 677.3061622062687, "timestamp": "2025-12-13T20:38:51.403271+00:00", "meta": {"OBJECT_NAME": "COSMOS 2251 DEB", "OBJECT_ID": "1993-036ACW", "EPOCH": "2025-12-12T05:16:46.096608", "MEAN_MOTION": 14.51477124, "ECCENTRICITY": 0.00951451, "INCLINATION": 74.1989, "RA_OF_ASC_NODE": 63.6857, "ARG_OF_PERICENTER": 248.9733, "MEAN_ANOMALY": 110.1233, "EPHEMERIS_TYPE": 0, "CLASSIFICATION_TYPE": "U", "NORAD_CAT_ID": 34883, "ELEMENT_SET_NO": 999, "REV_AT_EPOCH": 86432, "BSTAR": 0.0063651984, "MEAN_MOTION_DOT": 0.00027049, "MEAN_MOTION_DDOT": 0}, "tle": {"line1": "1 34883U 93036ACW 25346.21997797  .00027049  00000+0  63652-2 0  9993", "line2": "2 34883  74.1989  63.6857 0095145 248.9733 110.1233 14.51477124864321"}}, "geometry": {"type": "Point", "coordinates": [20.317461053564617, -66.36036251509013]}}, {"type": "Feature", "properties": {"norad_id": 34884, "name": "COSMOS 2251 DEB", "group": "cosmos-2251-debris", "lat": 15.71600989746208, "lon": 59.12333636339165, "alt_km": 596.9988174297769, "timestamp": "2025-12-13T20:38:51.403281+00:00", "meta": {"OBJECT_NAME": "COSMOS 2251 DEB", "OBJECT_ID": "1993-036ACX", "EPOCH": "2025-12-13T06:19:32.702880", "MEAN_MOTION": 14.90119335, "ECCENTRICITY": 0.00024271, "INCLINATION": 74.0176, "RA_OF_ASC_NODE": 55.6926, "ARG_OF_PERICENTER": 78.7988, "MEAN_ANOMALY": 337.8064, "EPHEMERIS_TYPE": 0, "CLASSIFICATION_TYPE": "U", "NORAD_CAT_ID": 34884, "ELEMENT_SET_NO": 999, "REV_AT_EPOCH": 87813, "BSTAR": 0.0043308408, "MEAN_MOTION_DOT": 0.00042123, "MEAN_MOTION_DDOT": 0}, "tle": {"line1": "1 34884U 93036ACX 25347.26357295  .00042123  00000+0  43308-2 0  9999", "line2": "2 34884  74.0176  55.6926 0002427  78.7988 337.8064 14.90119335878133"}}, "geometry": {"type": "Point", "coordinates": [59.12333636339165, 15.71600989746208]}}, {"type": "Feature", "properties": {"norad_id": 34885, "name": "COSMOS 2251 DEB", "group": "cosmos-2251-debris", "lat": 66.93979866158301, "lon": -41.35787212942248, "alt_km": 723.921402148666, "timestamp": "2025-12-13T20:38:51.403291+00:00", "meta": {"OBJECT_NAME": "COSMOS 2251 DEB", "OBJECT_ID": "1993-036ACY", "EPOCH": "2025-12-12T23:20:51.000864", "MEAN_MOTION": 14.51504435, "ECCENTRICITY": 0.00151811, "INCLINATION": 74.0308, "RA_OF_ASC_NODE": 182.5834, "ARG_OF_PERICENTER": 268.0218, "MEAN_ANOMALY": 243.1569, "EPHEMERIS_TYPE": 0, "CLASSIFICATION_TYPE": "U", "NORAD_CAT_ID": 34885, "ELEMENT_SET_NO": 999, "REV_AT_EPOCH": 87482, "BSTAR": 0.0010028187, "MEAN_MOTION_DOT": 3.989e-05, "MEAN_MOTION_DDOT": 0}, "tle": {"line1": "1 34885U 93036ACY 25346.97281251  .00003989  00000+0  10028-2 0  9995", "line2": "2 34885  74.0308 182.5834 0015181 268.0218 243.1569 14.51504435874827"}}, "geometry": {"type": "Point", "coordinates": [-41.35787212942248, 66.93979866158301]}}, {"type": "Feature", "properties": {"norad_id": 34886, "name": "COSMOS 2251 DEB", "group": "cosmos-2251-debris", "lat": -2.3175111586265347, "lon": -0.769316446221861, "alt_km": 473.40180595012134, "timestamp": "2025-12-13T20:38:51.403301+00:00", "meta": {"OBJECT_NAME": "COSMOS 2251 DEB", "OBJECT_ID": "1993-036ACZ", "EPOCH": "2025-12-12T22:00:46.238976", "MEAN_MOTION": 15.3868294, "ECCENTRICITY": 0.0030604, "INCLINATION": 73.9501, "RA_OF_ASC_NODE": 180.6071, "ARG_OF_PERICENTER": 3.9755, "MEAN_ANOMALY": 356.1689, "EPHEMERIS_TYPE": 0, "CLASSIFICATION_TYPE": "U", "NORAD_CAT_ID": 34886, "ELEMENT_SET_NO": 999, "REV_AT_EPOCH": 63001, "BSTAR": 0.002242925, "MEAN_MOTION_DOT": 0.00088092, "MEAN_MOTION_DDOT": 0}, "tle": {"line1": "1 34886U 93036ACZ 25346.91720184  .00088092  00000+0  22429-2 0  9999", "line2": "2 34886  73.9501 180.6071 0030604   3.9755 356.1689 15.38682940630015"}}, "geometry": {"type": "Point", "coordinates": [-0.769316446221861, -2.3175111586265347]}}, {"type": "Feature", "properties": {"norad_id": 34907, "name": "COSMOS 2251 DEB", "group": "cosmos-2251-debris", "lat": 43.60803975569986, "lon": -149.93075036965774, "alt_km": 439.927584668023, "timestamp": "2025-12-13T20:38:51.403312+00:00", "meta": {"OBJECT_NAME": "COSMOS 2251 DEB", "OBJECT_ID": "1993-036ADC", "EPOCH": "2025-12-12T14:31:54.130368", "MEAN_MOTION": 15.4390522, "ECCENTRICITY": 0.00205238, "INCLINATION": 73.9702, "RA_OF_ASC_NODE": 48.7038, "ARG_OF_PERICENTER": 341.6469, "MEAN_ANOMALY": 18.3997, "EPHEMERIS_TYPE": 0, "CLASSIFICATION_TYPE": "U", "NORAD_CAT_ID": 34907, "ELEMENT_SET_NO": 999, "REV_AT_EPOCH": 87971, "BSTAR": 0.0097835779, "MEAN_MOTION_DOT": 0.00475883, "MEAN_MOTION_DDOT": 0}, "tle": {"line1": "1 34907U 93036ADC 25346.60548762  .00475883  00000+0  97836-2 0  9991", "line2": "2 34907  73.9702  48.7038 0020523 341.6469  18.3997 15.43905220879718"}}, "geometry": {"type": "Point", "coordinates": [-149.93075036965774, 43.60803975569986]}}, {"type": "Feature", "properties": {"norad_id": 34908, "name": "COSMOS 2251 DEB", "group": "cosmos-2251-debris", "lat": 63.16596945095013, "lon": 167.19775934054593, "alt_km": 752.7940734380618, "timestamp": "2025-12-13T20:38:51.403321+00:00", "meta": {"OBJECT_NAME": "COSMOS 2251 DEB", "OBJECT_ID": "1993-036ADD", "EPOCH": "2025-12-13T03:41:54.621024", "MEAN_MOTION": 14.37400456, "ECCENTRICITY": 0.00400579, "INCLINATION": 74.0594, "RA_OF_ASC_NODE": 22.8951, "ARG_OF_PERICENTER": 38.8609, "MEAN_ANOMALY": 19.5978, "EPHEMERIS_TYPE": 0, "CLASSIFICATION_TYPE": "U", "NORAD_CAT_ID": 34908, "ELEMENT_SET_NO": 999, "REV_AT_EPOCH": 87285, "BSTAR": 0.00075548772, "MEAN_MOTION_DOT": 2.253e-05, "MEAN_MOTION_DDOT": 0}, "tle": {"line1": "1 34908U 93036ADD 25347.15410441  .00002253  00000+0  75549-3 0  9990", "line2": "2 34908  74.0594  22.8951 0040057  38.8609  19.5978 14.37400456872855"}}, "geometry": {"type": "Point", "coordinates": [167.19775934054593, 63.16596945095013]}}]}